[{"OBJECT_NAME":"STARLINK-30191","OBJECT_ID":"2023-102K","EPOCH":"2026-03-09T08:04:08.029056","MEAN_MOTION":15.27568618,"ECCENTRICITY":0.00013597,"INCLINATION":43.0051,"RA_OF_ASC_NODE":188.645,"ARG_OF_PERICENTER":246.2727,"MEAN_ANOMALY":113.7982,"EPHEMERIS_TYPE":0,"CLASSIFICATION_TYPE":"U","NORAD_CAT_ID":57413,"ELEMENT_SET_NO":999,"REV_AT_EPOCH":14691,"BSTAR":-6.7355929e-5,"MEAN_MOTION_DOT":-2.114e-5,"MEAN_MOTION_DDOT":0},{"OBJECT_NAME":"OTTER","OBJECT_ID":"2025-009Q","EPOCH":"2026-03-09T17:21:07.902432","MEAN_MOTION":15.27809545,"ECCENTRICITY":0.00035728,"INCLINATION":97.4065,"RA_OF_ASC_NODE":151.3812,"ARG_OF_PERICENTER":310.771,"MEAN_ANOMALY":49.3219,"EPHEMERIS_TYPE":0,"CLASSIFICATION_TYPE":"U","NORAD_CAT_ID":62623,"ELEMENT_SET_NO":999,"REV_AT_EPOCH":6372,"BSTAR":0.00045151206,"MEAN_MOTION_DOT":0.00012198,"MEAN_MOTION_DDOT":0}]
