STARLINK-30191          
1 57413U 23102K   26068.33620404 -.00002114  00000+0 -67356-4 0  9992
2 57413  43.0051 188.6450 0001359 246.2727 113.7982 15.27568618146916
OTTER                   
1 62623U 25009Q   26068.72300813  .00012198  00000+0  45151-3 0  9990
2 62623  97.4065 151.3812 0003573 310.7710  49.3219 15.27809545 63722
